SatCatId,ObjectName,LaunchYear,OrbitalPeriod,LaunchMass,StatusCode,Inclination,Status,UcsData,OrbitClassEstimated,LaunchSiteCountry,Owner,UseType,Purpose,LaunchVehicleClass,TLE1,TLE2,MeanMotion,Eccentricity,OrbitClass
50190,STARLINK-3268,2021,95.44,260.0,+,53.22,Active,1,LEO,USA,USA,Commercial,Communications,Falcon,1 50190U 21125AL  23266.42203139  .00001073  00000+0  85511-4 0  9993,2 50190  53.2167 311.6063 0001737  88.7518 271.3673 15.08850826101123,15.08850826,0.0001737,LEO
50191,STARLINK-3273,2021,95.44,260.0,+,53.22,Active,1,LEO,USA,USA,Commercial,Communications,Falcon,1 50191U 21125AM  23266.56371387  .00002169  00000+0  15427-3 0  9995,2 50191  53.2185 330.9661 0001502  89.3906 270.7258 15.08850532100866,15.08850532,0.0001502,LEO
50192,STARLINK-3259,2021,95.44,260.0,+,53.22,Active,1,LEO,USA,USA,Commercial,Communications,Falcon,1 50192U 21125AN  23266.41835558  .00001479  00000+0  11101-3 0  9993,2 50192  53.2169 311.6216 0001719  92.7458 267.3731 15.08845386101120,15.08845386,0.0001719,LEO
50193,STARLINK-3261,2021,95.44,260.0,+,53.22,Active,1,LEO,USA,USA,Commercial,Communications,Falcon,1 50193U 21125AP  23266.36315271  .00003022  00000+0  20782-3 0  9994,2 50193  53.2164 311.8681 0001632  76.0141 284.1033 15.08846800100631,15.088468,0.0001632,LEO
50194,STARLINK-3269,2021,95.44,260.0,+,53.22,Active,1,LEO,USA,USA,Commercial,Communications,Falcon,1 50194U 21125AQ  23266.34939203  .00001177  00000+0  91996-4 0  9995,2 50194  53.2165 311.9376 0001631  87.8821 272.2358 15.08845877101169,15.08845877,0.0001631,LEO
50195,STARLINK-3266,2021,95.44,260.0,+,53.22,Active,1,LEO,USA,USA,Commercial,Communications,Falcon,1 50195U 21125AR  23266.42571303  .00001163  00000+0  91122-4 0  9994,2 50195  53.2167 311.5874 0001531  84.0444 276.0723 15.08846267101128,15.08846267,0.0001531,LEO
50196,STARLINK-3263,2021,95.44,260.0,+,53.22,Active,1,LEO,USA,USA,Commercial,Communications,Falcon,1 50196U 21125AS  23266.41195849  .00002987  00000+0  20565-3 0  9998,2 50196  53.2172 311.6966 0001568  93.8127 266.3044 15.08841830101123,15.0884183,0.0001568,LEO
50197,STARLINK-3267,2021,95.44,260.0,+,53.22,Active,1,LEO,USA,USA,Commercial,Communications,Falcon,1 50197U 21125AT  23266.41099287  .00000137  00000+0  26718-4 0  9990,2 50197  53.2166 311.6519 0001623  88.1061 272.0117 15.08847909101170,15.08847909,0.0001623,LEO
50198,STARLINK-3264,2021,95.44,260.0,+,53.22,Active,1,LEO,USA,USA,Commercial,Communications,Falcon,1 50198U 21125AU  23266.39627377  .00021733  00000+0  13790-2 0  9994,2 50198  53.2163 311.7182 0001436  76.4153 283.6999 15.08850530101124,15.0885053,0.0001436,LEO
50199,STARLINK-3270,2021,95.44,260.0,+,53.22,Active,1,LEO,USA,USA,Commercial,Communications,Falcon,1 50199U 21125AV  23266.51035817 -.00002844  00000+0 -16071-3 0  9991,2 50199  53.2166 311.2076 0001773  87.4313 272.6882 15.08832871101137,15.08832871,0.0001773,LEO
50200,STARLINK-3235,2021,95.44,260.0,+,53.22,Active,1,LEO,USA,USA,Commercial,Communications,Falcon,1 50200U 21125AW  23266.40459257  .00003775  00000+0  25506-3 0  9995,2 50200  53.2164 311.6930 0001817  66.5764 293.5419 15.08850329101134,15.08850329,0.0001817,LEO
50201,STARLINK-3255,2021,95.44,260.0,+,53.22,Active,1,LEO,USA,USA,Commercial,Communications,Falcon,1 50201U 21125AX  23266.39355550  .00002573  00000+0  17965-3 0  9990,2 50201  53.2162 311.7414 0001571  82.6042 277.5129 15.08845100101126,15.088451,0.0001571,LEO
50202,STARLINK-3256,2021,95.44,260.0,+,53.22,Active,1,LEO,USA,USA,Commercial,Communications,Falcon,1 50202U 21125AY  23266.50667027  .00003273  00000+0  22357-3 0  9998,2 50202  53.2168 311.2191 0001425  94.0128 266.1027 15.08853428101134,15.08853428,0.0001425,LEO
50203,STARLINK-3257,2021,95.44,260.0,+,53.22,Active,1,LEO,USA,USA,Commercial,Communications,Falcon,1 50203U 21125AZ  23266.39994860  .00003877  00000+0  26144-3 0  9992,2 50203  53.2173 311.6994 0001243  84.5166 275.5967 15.08858157 98046,15.08858157,0.0001243,LEO
50204,STARLINK-3254,2021,95.44,260.0,+,53.22,Active,1,LEO,USA,USA,Commercial,Communications,Falcon,1 50204U 21125BA  23266.44875243  .00001526  00000+0  11396-3 0  9994,2 50204  53.2168 311.4937 0001662  78.4920 281.6259 15.08847488101188,15.08847488,0.0001662,LEO
50205,STARLINK-3260,2021,95.44,260.0,+,53.22,Active,1,LEO,USA,USA,Commercial,Communications,Falcon,1 50205U 21125BB  23266.32271138  .00004157  00000+0  27903-3 0  9999,2 50205  53.2166 282.0474 0001593  88.7554 271.3620 15.08850642101539,15.08850642,0.0001593,LEO
50206,STARLINK-3258,2021,95.44,260.0,+,53.22,Active,1,LEO,USA,USA,Commercial,Communications,Falcon,1 50206U 21125BC  23266.50761647  .00006462  00000+0  42354-3 0  9997,2 50206  53.2172 311.1119 0001603  79.8863 280.2310 15.08853970 99069,15.0885397,0.0001603,LEO
50207,STARLINK-3262,2021,95.44,260.0,+,53.22,Active,1,LEO,USA,USA,Commercial,Communications,Falcon,1 50207U 21125BD  23266.45515369  .00023127  00000+0  14656-2 0  9990,2 50207  53.2159 311.4553 0001399  93.0022 267.1130 15.08859716 99122,15.08859716,0.0001399,LEO
50212,TURKSAT 5B,2021,1436.09,4500.0,+,0.07,Active,1,GSO,USA,Turkey,Commercial,Communications,Falcon,1 50212U 21126A   23266.28660421  .00000144  00000+0  00000+0 0  9997,2 50212   0.0697 342.8074 0001736 320.1573 204.1070  1.00271896  6295,1.00271896,0.0001736,GEO
50319,INMARSAT 6-F1,2021,1436.1,5470.0,+,0.02,Active,1,GSO,Japan,INMARSAT,Commercial,Communications,H2A,1 50319U 21128A   23266.63455904 -.00000175  00000+0  00000+0 0  9999,2 50319   0.0183 140.7477 0000724  95.1488  78.4802  1.00272137  6233,1.00272137,7.24e-05,GEO
50321,SHIYAN 12 01 (SY-12 01),2021,1438.92,3000.0,+,1.09,Active,1,GSO,PRC,China,Government,Technology Development,Long March,1 50321U 21129A   23266.77945164 -.00000207  00000+0  00000+0 0  9996,2 50321   1.0865  96.3848 0002062 149.2955 129.1824  1.00075229  6511,1.00075229,0.0002062,GSO
50322,SHIYAN 12 02 (SY-12 02),2021,1433.45,3000.0,+,1.08,Active,1,GSO,PRC,China,Government,Technology Development,Long March,1 50322U 21129B   23266.85826583 -.00000070  00000+0  00000+0 0  9997,2 50322   1.0862  96.4031 0002698 130.2752 153.2629  1.00456695  6515,1.00456695,0.0002698,GSO
50465,ZY-1 02E,2021,100.32,-1.0,+,98.53,Active,0,LEO,PRC,China,Unknown,Unknown,Long March,1 50465U 21131A   23266.76416595  .00000217  00000+0  90891-4 0  9990,2 50465  98.5343 343.9926 0001035  98.9125 261.2177 14.35361627 91333,14.35361627,0.0001035,LEO
50466,XW-3 (CAS-9),2021,100.07,-1.0,+,98.55,Active,0,LEO,PRC,China,Unknown,Unknown,Unknown,1 50466U 21131B   23266.76784939  .00000867  00000+0  29486-3 0  9993,2 50466  98.5471 347.9935 0004050 190.3882 169.7223 14.39062516 91532,14.39062516,0.000405,LEO
50469,ONEWEB-0389,2021,109.29,148.0,+,87.92,Active,1,LEO,Kazakhstan,UK,Commercial,Communications,Soyuz,1 50469U 21132A   23266.32082682  .00000050  00000+0  95469-4 0  9994,2 50469  87.9245 204.1370 0001349  81.1741 278.9543 13.17651052 86673,13.17651052,0.0001349,LEO
50470,ONEWEB-0390,2021,109.29,148.0,+,87.92,Active,1,LEO,Kazakhstan,UK,Commercial,Communications,Soyuz,1 50470U 21132B   23266.32294514  .00000137  00000+0  32060-3 0  9998,2 50470  87.9247 204.1429 0001749  59.9833 300.1472 13.17651410 86678,13.1765141,0.0001749,LEO
50471,ONEWEB-0391,2021,109.29,148.0,+,87.92,Active,1,LEO,Kazakhstan,UK,Commercial,Communications,Soyuz,1 50471U 21132C   23266.78064378 -.00009110  00000+0 -23505-1 0  9996,2 50471  87.9245 204.0229 0001828  70.3904 289.7424 13.17693029 88020,13.17693029,0.0001828,LEO
50472,ONEWEB-0392,2021,109.29,148.0,+,87.92,Active,1,LEO,Kazakhstan,UK,Commercial,Communications,Soyuz,1 50472U 21132D   23266.35456104  .00000023  00000+0  26866-4 0  9990,2 50472  87.9234 204.1452 0001569  68.5740 291.5559 13.17651562 86717,13.17651562,0.0001569,LEO
50473,ONEWEB-0393,2021,109.29,148.0,+,87.92,Active,1,LEO,Kazakhstan,UK,Commercial,Communications,Soyuz,1 50473U 21132E   23266.36406898  .00000042  00000+0  76109-4 0  9993,2 50473  87.9241 204.1100 0001875  67.4321 292.7009 13.17648905 86708,13.17648905,0.0001875,LEO
50474,ONEWEB-0394,2021,109.2,148.0,+,87.93,Active,1,LEO,Kazakhstan,UK,Commercial,Communications,Soyuz,1 50474U 21132F   23266.77710206  .00000049  00000+0  91905-4 0  9998,2 50474  87.9296 173.8068 0001690  75.8185 284.3135 13.18688965 91412,13.18688965,0.000169,LEO
50475,ONEWEB-0395,2021,109.8,148.0,+,87.9,Active,1,LEO,Kazakhstan,UK,Commercial,Communications,Soyuz,1 50475U 21132G   23266.43323628 -.00000907  00000+0 -25943-2 0  9992,2 50475  87.8958 219.2904 0001901  77.5105 282.6235 13.11419148 84947,13.11419148,0.0001901,LEO
50476,ONEWEB-0396,2021,109.2,148.0,+,87.93,Active,1,LEO,Kazakhstan,UK,Commercial,Communications,Soyuz,1 50476U 21132H   23266.31553847  .00000046  00000+0  82726-4 0  9994,2 50476  87.9299 173.8899 0001672  81.1388 278.9933 13.18686369 90122,13.18686369,0.0001672,LEO
50477,ONEWEB-0397,2021,109.2,148.0,+,87.93,Active,1,LEO,Kazakhstan,UK,Commercial,Communications,Soyuz,1 50477U 21132J   23266.78552987  .00002189  00000+0  55168-2 0  9998,2 50477  87.9305 173.7931 0001616  77.3609 282.7704 13.18699237 91430,13.18699237,0.0001616,LEO
50478,ONEWEB-0398,2021,109.8,148.0,+,87.9,Active,1,LEO,Kazakhstan,UK,Commercial,Communications,Soyuz,1 50478U 21132K   23266.40145880  .00000669  00000+0  18520-2 0  9990,2 50478  87.8954 219.2905 0001847  60.5309 299.6003 13.11417619 84834,13.11417619,0.0001847,LEO
50479,ONEWEB-0399,2021,109.8,148.0,+,87.9,Active,1,LEO,Kazakhstan,UK,Commercial,Communications,Soyuz,1 50479U 21132L   23266.38871801 -.00000003  00000+0 -44145-4 0  9995,2 50479  87.8954 219.3046 0002071  87.0500 273.0865 13.11420079 84824,13.11420079,0.0002071,LEO
50480,ONEWEB-0400,2021,109.2,148.0,+,87.92,Active,1,LEO,Kazakhstan,UK,Commercial,Communications,Soyuz,1 50480U 21132M   23266.30919848  .00000111  00000+0  24829-3 0  9997,2 50480  87.9225 173.9199 0001895  64.9264 295.2065 13.18679729 90095,13.18679729,0.0001895,LEO
